STARLINK-32381          
1 61066U 24164S   25212.92166405  .00000032  00000+0  13191-4 0  9994
2 61066  53.1611  36.7989 0001083  77.6710 282.4411 15.30191552 49670
STARLINK-32385          
1 61068U 24164U   25212.90794475  .00000283  00000+0  21699-4 0  9998
2 61068  53.1619  36.7141 0001415  96.3585 263.7577 15.30190043 50702
STARLINK-32380          
1 61069U 24164V   25212.90478185  .00000042  00000+0  13568-4 0  9995
2 61069  53.1624  36.6954 0001466  94.5171 265.5997 15.30184320 49678
STARLINK-32375          
1 61070U 24164W   25212.78364597  .00000506  00000+0  29220-4 0  9991
2 61070  53.1604  37.3574 0001137  76.3662 283.7466 15.30188546 49657
STARLINK-11209 [DTC]    
1 61200U 24171A   25213.18684243  .00000150  00000+0  60976-5 0  9991
2 61200  53.1595 183.4594 0001314  93.4266 266.6902 15.69705264 50665
STARLINK-11257 [DTC]    
1 61201U 24171B   25213.18193698 -.00000783  00000+0 -16080-5 0  9992
2 61201  53.1591 183.4218 0001226  77.1746 282.9409 15.69705477 50679
STARLINK-11309 [DTC]    
1 61202U 24171C   25213.17703193 -.00000159  00000+0  35468-5 0  9996
2 61202  53.1581 183.3914 0001170  72.1367 287.9779 15.69702333 50665
STARLINK-11292 [DTC]    
1 61203U 24171D   25213.17212566 -.00000068  00000+0  42954-5 0  9993
2 61203  53.1588 183.3566 0001070  54.7623 305.3495 15.69704777 50660
STARLINK-11302 [DTC]    
1 61204U 24171E   25213.16721805  .00000055  00000+0  53149-5 0  9997
2 61204  53.1584 183.3238 0001120  90.2449 269.8697 15.69707256 50663
STARLINK-11277 [DTC]    
1 61205U 24171F   25213.15740707 -.00000107  00000+0  39746-5 0  9995
2 61205  53.1588 183.2603 0001096  82.2974 277.8169 15.69709640 50661
STARLINK-11279 [DTC]    
1 61206U 24171G   25212.64314546 -.00001587  00000+0 -82435-5 0  9994
2 61206  53.1590 185.7387 0001215  97.5603 262.5553 15.69712988 49689
STARLINK-11091 [DTC]    
1 61207U 24171H   25212.65296291  .00000710  00000+0  10724-4 0  9998
2 61207  53.1584 185.8038 0001036  82.8392 277.2744 15.69699450 50539
STARLINK-11291 [DTC]    
1 61208U 24171J   25213.14759201 -.00000609  00000+0 -16551-6 0  9994
2 61208  53.1590 183.1938 0001351  94.3519 265.7653 15.69716802 50662
STARLINK-11304 [DTC]    
1 61209U 24171K   25213.20635870  .00000783  00000+0  11325-4 0  9990
2 61209  53.1593 182.8481 0001331 111.9604 248.1556 15.69703970 50674
STARLINK-11307 [DTC]    
1 61210U 24171L   25212.94687932 -.00000457  00000+0  10854-5 0  9994
2 61210  53.1581 184.8042 0001014  94.2075 265.9058 15.69706750 49728
STARLINK-11298 [DTC]    
1 61211U 24171M   25213.19665044 -.00001212  00000+0 -51453-5 0  9994
2 61211  53.1597 183.5143 0001230  81.3240 278.7917 15.69710831 50661
