[{"OBJECT_NAME":"STARLINK-32381","OBJECT_ID":"2024-164S","EPOCH":"2025-07-31T22:07:11.773920","MEAN_MOTION":15.30191552,"ECCENTRICITY":0.0001083,"INCLINATION":53.1611,"RA_OF_ASC_NODE":36.7989,"ARG_OF_PERICENTER":77.671,"MEAN_ANOMALY":282.4411,"EPHEMERIS_TYPE":0,"CLASSIFICATION_TYPE":"U","NORAD_CAT_ID":61066,"ELEMENT_SET_NO":999,"REV_AT_EPOCH":4967,"BSTAR":1.3191e-5,"MEAN_MOTION_DOT":3.2e-7,"MEAN_MOTION_DDOT":0},{"OBJECT_NAME":"STARLINK-32385","OBJECT_ID":"2024-164U","EPOCH":"2025-07-31T21:47:26.426400","MEAN_MOTION":15.30190043,"ECCENTRICITY":0.0001415,"INCLINATION":53.1619,"RA_OF_ASC_NODE":36.7141,"ARG_OF_PERICENTER":96.3585,"MEAN_ANOMALY":263.7577,"EPHEMERIS_TYPE":0,"CLASSIFICATION_TYPE":"U","NORAD_CAT_ID":61068,"ELEMENT_SET_NO":999,"REV_AT_EPOCH":5070,"BSTAR":2.1699e-5,"MEAN_MOTION_DOT":2.83e-6,"MEAN_MOTION_DDOT":0},{"OBJECT_NAME":"STARLINK-32380","OBJECT_ID":"2024-164V","EPOCH":"2025-07-31T21:42:53.151840","MEAN_MOTION":15.3018432,"ECCENTRICITY":0.0001466,"INCLINATION":53.1624,"RA_OF_ASC_NODE":36.6954,"ARG_OF_PERICENTER":94.5171,"MEAN_ANOMALY":265.5997,"EPHEMERIS_TYPE":0,"CLASSIFICATION_TYPE":"U","NORAD_CAT_ID":61069,"ELEMENT_SET_NO":999,"REV_AT_EPOCH":4967,"BSTAR":1.3568e-5,"MEAN_MOTION_DOT":4.2e-7,"MEAN_MOTION_DDOT":0},{"OBJECT_NAME":"STARLINK-32375","OBJECT_ID":"2024-164W","EPOCH":"2025-07-31T18:48:27.011808","MEAN_MOTION":15.30188546,"ECCENTRICITY":0.0001137,"INCLINATION":53.1604,"RA_OF_ASC_NODE":37.3574,"ARG_OF_PERICENTER":76.3662,"MEAN_ANOMALY":283.7466,"EPHEMERIS_TYPE":0,"CLASSIFICATION_TYPE":"U","NORAD_CAT_ID":61070,"ELEMENT_SET_NO":999,"REV_AT_EPOCH":4965,"BSTAR":2.922e-5,"MEAN_MOTION_DOT":5.06e-6,"MEAN_MOTION_DDOT":0},{"OBJECT_NAME":"STARLINK-11209 [DTC]","OBJECT_ID":"2024-171A","EPOCH":"2025-08-01T04:29:03.185952","MEAN_MOTION":15.69705264,"ECCENTRICITY":0.0001314,"INCLINATION":53.1595,"RA_OF_ASC_NODE":183.4594,"ARG_OF_PERICENTER":93.4266,"MEAN_ANOMALY":266.6902,"EPHEMERIS_TYPE":0,"CLASSIFICATION_TYPE":"U","NORAD_CAT_ID":61200,"ELEMENT_SET_NO":999,"REV_AT_EPOCH":5066,"BSTAR":6.0976e-6,"MEAN_MOTION_DOT":1.5e-6,"MEAN_MOTION_DDOT":0},{"OBJECT_NAME":"STARLINK-11257 [DTC]","OBJECT_ID":"2024-171B","EPOCH":"2025-08-01T04:21:59.355072","MEAN_MOTION":15.69705477,"ECCENTRICITY":0.0001226,"INCLINATION":53.1591,"RA_OF_ASC_NODE":183.4218,"ARG_OF_PERICENTER":77.1746,"MEAN_ANOMALY":282.9409,"EPHEMERIS_TYPE":0,"CLASSIFICATION_TYPE":"U","NORAD_CAT_ID":61201,"ELEMENT_SET_NO":999,"REV_AT_EPOCH":5067,"BSTAR":-1.608e-6,"MEAN_MOTION_DOT":-7.83e-6,"MEAN_MOTION_DDOT":0},{"OBJECT_NAME":"STARLINK-11309 [DTC]","OBJECT_ID":"2024-171C","EPOCH":"2025-08-01T04:14:55.558752","MEAN_MOTION":15.69702333,"ECCENTRICITY":0.000117,"INCLINATION":53.1581,"RA_OF_ASC_NODE":183.3914,"ARG_OF_PERICENTER":72.1367,"MEAN_ANOMALY":287.9779,"EPHEMERIS_TYPE":0,"CLASSIFICATION_TYPE":"U","NORAD_CAT_ID":61202,"ELEMENT_SET_NO":999,"REV_AT_EPOCH":5066,"BSTAR":3.5468e-6,"MEAN_MOTION_DOT":-1.59e-6,"MEAN_MOTION_DDOT":0},{"OBJECT_NAME":"STARLINK-11292 [DTC]","OBJECT_ID":"2024-171D","EPOCH":"2025-08-01T04:07:51.657024","MEAN_MOTION":15.69704777,"ECCENTRICITY":0.000107,"INCLINATION":53.1588,"RA_OF_ASC_NODE":183.3566,"ARG_OF_PERICENTER":54.7623,"MEAN_ANOMALY":305.3495,"EPHEMERIS_TYPE":0,"CLASSIFICATION_TYPE":"U","NORAD_CAT_ID":61203,"ELEMENT_SET_NO":999,"REV_AT_EPOCH":5066,"BSTAR":4.2954e-6,"MEAN_MOTION_DOT":-6.8e-7,"MEAN_MOTION_DDOT":0},{"OBJECT_NAME":"STARLINK-11302 [DTC]","OBJECT_ID":"2024-171E","EPOCH":"2025-08-01T04:00:47.639520","MEAN_MOTION":15.69707256,"ECCENTRICITY":0.000112,"INCLINATION":53.1584,"RA_OF_ASC_NODE":183.3238,"ARG_OF_PERICENTER":90.2449,"MEAN_ANOMALY":269.8697,"EPHEMERIS_TYPE":0,"CLASSIFICATION_TYPE":"U","NORAD_CAT_ID":61204,"ELEMENT_SET_NO":999,"REV_AT_EPOCH":5066,"BSTAR":5.3149e-6,"MEAN_MOTION_DOT":5.5e-7,"MEAN_MOTION_DDOT":0},{"OBJECT_NAME":"STARLINK-11277 [DTC]","OBJECT_ID":"2024-171F","EPOCH":"2025-08-01T03:46:39.970848","MEAN_MOTION":15.6970964,"ECCENTRICITY":0.0001096,"INCLINATION":53.1588,"RA_OF_ASC_NODE":183.2603,"ARG_OF_PERICENTER":82.2974,"MEAN_ANOMALY":277.8169,"EPHEMERIS_TYPE":0,"CLASSIFICATION_TYPE":"U","NORAD_CAT_ID":61205,"ELEMENT_SET_NO":999,"REV_AT_EPOCH":5066,"BSTAR":3.9746e-6,"MEAN_MOTION_DOT":-1.07e-6,"MEAN_MOTION_DDOT":0},{"OBJECT_NAME":"STARLINK-11279 [DTC]","OBJECT_ID":"2024-171G","EPOCH":"2025-07-31T15:26:07.767744","MEAN_MOTION":15.69712988,"ECCENTRICITY":0.0001215,"INCLINATION":53.159,"RA_OF_ASC_NODE":185.7387,"ARG_OF_PERICENTER":97.5603,"MEAN_ANOMALY":262.5553,"EPHEMERIS_TYPE":0,"CLASSIFICATION_TYPE":"U","NORAD_CAT_ID":61206,"ELEMENT_SET_NO":999,"REV_AT_EPOCH":4968,"BSTAR":-8.2435e-6,"MEAN_MOTION_DOT":-1.587e-5,"MEAN_MOTION_DDOT":0},{"OBJECT_NAME":"STARLINK-11091 [DTC]","OBJECT_ID":"2024-171H","EPOCH":"2025-07-31T15:40:15.995424","MEAN_MOTION":15.6969945,"ECCENTRICITY":0.0001036,"INCLINATION":53.1584,"RA_OF_ASC_NODE":185.8038,"ARG_OF_PERICENTER":82.8392,"MEAN_ANOMALY":277.2744,"EPHEMERIS_TYPE":0,"CLASSIFICATION_TYPE":"U","NORAD_CAT_ID":61207,"ELEMENT_SET_NO":999,"REV_AT_EPOCH":5053,"BSTAR":1.0724e-5,"MEAN_MOTION_DOT":7.1e-6,"MEAN_MOTION_DDOT":0},{"OBJECT_NAME":"STARLINK-11291 [DTC]","OBJECT_ID":"2024-171J","EPOCH":"2025-08-01T03:32:31.949664","MEAN_MOTION":15.69716802,"ECCENTRICITY":0.0001351,"INCLINATION":53.159,"RA_OF_ASC_NODE":183.1938,"ARG_OF_PERICENTER":94.3519,"MEAN_ANOMALY":265.7653,"EPHEMERIS_TYPE":0,"CLASSIFICATION_TYPE":"U","NORAD_CAT_ID":61208,"ELEMENT_SET_NO":999,"REV_AT_EPOCH":5066,"BSTAR":-1.6551e-7,"MEAN_MOTION_DOT":-6.09e-6,"MEAN_MOTION_DDOT":0},{"OBJECT_NAME":"STARLINK-11304 [DTC]","OBJECT_ID":"2024-171K","EPOCH":"2025-08-01T04:57:09.391680","MEAN_MOTION":15.6970397,"ECCENTRICITY":0.0001331,"INCLINATION":53.1593,"RA_OF_ASC_NODE":182.8481,"ARG_OF_PERICENTER":111.9604,"MEAN_ANOMALY":248.1556,"EPHEMERIS_TYPE":0,"CLASSIFICATION_TYPE":"U","NORAD_CAT_ID":61209,"ELEMENT_SET_NO":999,"REV_AT_EPOCH":5067,"BSTAR":1.1325e-5,"MEAN_MOTION_DOT":7.83e-6,"MEAN_MOTION_DDOT":0},{"OBJECT_NAME":"STARLINK-11307 [DTC]","OBJECT_ID":"2024-171L","EPOCH":"2025-07-31T22:43:30.373248","MEAN_MOTION":15.6970675,"ECCENTRICITY":0.0001014,"INCLINATION":53.1581,"RA_OF_ASC_NODE":184.8042,"ARG_OF_PERICENTER":94.2075,"MEAN_ANOMALY":265.9058,"EPHEMERIS_TYPE":0,"CLASSIFICATION_TYPE":"U","NORAD_CAT_ID":61210,"ELEMENT_SET_NO":999,"REV_AT_EPOCH":4972,"BSTAR":1.0854e-6,"MEAN_MOTION_DOT":-4.57e-6,"MEAN_MOTION_DDOT":0},{"OBJECT_NAME":"STARLINK-11298 [DTC]","OBJECT_ID":"2024-171M","EPOCH":"2025-08-01T04:43:10.598016","MEAN_MOTION":15.69710831,"ECCENTRICITY":0.000123,"INCLINATION":53.1597,"RA_OF_ASC_NODE":183.5143,"ARG_OF_PERICENTER":81.324,"MEAN_ANOMALY":278.7917,"EPHEMERIS_TYPE":0,"CLASSIFICATION_TYPE":"U","NORAD_CAT_ID":61211,"ELEMENT_SET_NO":999,"REV_AT_EPOCH":5066,"BSTAR":-5.1453e-6,"MEAN_MOTION_DOT":-1.212e-5,"MEAN_MOTION_DDOT":0}]
